#dP2021 12 21  0  0  0.00000000      97 __u+U IGS14 FIT  IAC
## 2189 172800.00000000   900.00000000 59569 0.0000000000000
+  123   C01C03C04C05C06C07C08C09C10C11C12C13C14C16C19C20C21
+        C22C23C24C25C26C27C28C29C30C32C33C34C35C36C37C38C39
+        C40C41C42C43C44C45C46C59C60E01E02E03E04E05E07E08E09
+        E11E12E13E14E15E18E19E21E24E25E26E27E30E31E33E36G01
+        G02G03G04G05G06G07G08G09G10G11G12G13G14G15G16G17G18
+        G19G20G21G22G23G24G25G26G27G28G29G30G31G32J01J02J03
+        J07R01R02R03R04R05R07R08R09R11R12R13R14R15R17R18R19
+        R20R21R22R24  0  0  0  0  0  0  0  0  0  0  0  0  0
++        13 13 13 13  8 10 11  8  9  9  9  9  9  9  7  7  7
++         7  7  7  7  7  7  7  7  7  7  7  7  7  7  7  7  7
++         7  7  7  7  7  7  7 14 13  4  4  5  4  4  4  4  4
++         4  4  4  4  4  4  4  4  4  4  4  4  4  4  4  4  3
++         3  3  4  3  3  3  3  3  3  4  3  3  3  3  3  3  3
++         4  4  3  4  3  3  3  3  3  4  3  3  4  4  0  8  8
++        14  7  6  6  5  6  6  6  6  7  5  7  6  6  6  6  7
++         7  6  7  5  0  0  0  0  0  0  0  0  0  0  0  0  0
%c M  cc GPS ccc cccc cccc cccc cccc ccccc ccccc ccccc ccccc
%c cc cc ccc ccc cccc cccc cccc cccc ccccc ccccc ccccc ccccc
%f  1.2500000  1.025000000  0.00000000000  0.000000000000000
%f  0.0000000  0.000000000  0.00000000000  0.000000000000000
%i    0    0    0    0      0      0      0      0         0
%i    0    0    0    0      0      0      0      0         0
/* INFORMATION & ANALYSIS CENTER (IAC)            FINAL DATA
/* S/V CLOCKS ARE ALIGNED TO GNSS TIME                      
/* G:C1WC2W R:C1PC2P E:C1XC5X C:C2IC6I J:C1CC2S             
/* PCV:IGS14_2186 OL/AL:FES2004  NONE     YN ORB:CoN CLK:CoN
*  2021 12 21  7  0  0.00000000
PC01 -34373.212674  24444.038793   -341.526996   -322.554106
PC03 -14715.636876  39517.354760  -1017.551710    409.309531
PC04 -39658.813723  14376.344837   -504.011403   -267.109062
PC05  21879.669641  36039.451571    -70.721570    340.098089
PC06 -15101.780211  26563.385533  28942.303376    670.093970
PC07  -8820.990864  41023.101140   4791.186093     96.674998
PC08   1996.366894  26616.061951 -32564.604438     -5.060453
PC09  -7739.810623  26032.887783  32448.686548   -366.381295
PC10  -3567.475468  42231.041306  -1398.968416    137.997425
PC11  -1057.339968  15872.601597 -22859.696069   -320.245589
PC12 -19558.473561  14800.138904 -13283.670923   -428.584725
PC13   5946.790041  29150.129308 -29631.452941   -171.467826
PC14  -1068.578787  27008.560134   7058.191183    490.618102
PC16 -20392.350052  25863.002238  26321.887325     30.880292
PC19  -5707.833275 -22616.140735 -15292.654580    920.003602
PC20   6526.668595 -27113.876227    597.023693   -796.408407
PC21 -15609.249155  15597.614532 -17080.666397   -950.482674
PC22 -15125.939029  -4828.608952 -22952.623888   -964.739207
PC23  23150.613116  12132.131368  -9761.934195   -963.598056
PC24  -1958.315292  18560.145721  20724.354898   -950.096498
PC25  16370.332193  21433.813394   7107.126500   -806.831068
PC26 -16706.156564   5785.673830  21587.872885    804.887166
PC27  25187.696227 -10939.864921   4996.083988    648.565242
PC28  25024.296012   1522.583925 -12245.031759     11.390978
PC29 -10561.424723 -12851.050399  22404.052814    490.499898
PC30  10688.264465 -17444.350737  18987.412913    489.275175
PC32  15525.515288 -15625.486947  17141.134838   -956.811698
PC33   5803.021927  22658.937990  15226.810547   -959.075410
PC34  -9702.232191  17480.283669 -19464.721583   -509.951801
PC35 -24796.373979  -1125.930566  12718.234758     55.902917
PC36 -15566.163084 -21910.002769  -7510.589286   -838.957644
PC37  17488.180909  -4475.566238 -21261.771961   -918.242505
PC38  -8380.536249  22866.234387 -34379.447606    198.175451
PC39 -23760.578603  26427.285040  22562.381996     34.406453
PC40 -15211.589718  38224.026251   9585.355667    228.442466
PC41  15078.688477   5258.821047  22928.871158   -917.226030
PC42  -7044.371466  26967.829676  -1442.420911   -932.130942
PC43   9906.605712  13297.361885 -22450.242039   -953.093111
PC44 -24842.097061  11733.433303  -4801.986791    505.196477
PC45 -23151.445536 -12002.370491   9974.838145    632.552947
PC46    536.996562 -19204.472212 -20255.179419    -71.830128
PC59 -32358.345671  27026.095430    424.199020      0.032595
PC60   7289.568683  41499.535012  -1536.589554     -0.327952
PE01 -12497.363882  12927.916726  23512.478517   -542.528052
PE02  12399.534084 -13118.995228 -23464.085192    268.262389
PE03  21831.219679 -19347.928701   4987.633766   -508.600263
PE04  -9712.329962  24779.971353  12948.203098   -925.379739
PE05  21360.158985  -2440.334492  20341.523808   -224.860745
PE07  -8456.367236 -15666.509618 -23649.663277   -619.866042
PE08   9312.360053 -24724.434667 -13346.929046   5885.373023
PE09   8581.838990  15384.199684  23784.130749   5422.697572
PE11  19359.634947  14926.135128 -16698.835818   4848.232205
PE12  -2508.744622  15968.595904 -24790.184660   4850.279326
PE13 -18854.274615 -15012.259839  17194.825497    424.875193
PE14  21720.071601 -13513.951571  -2529.720225  -1682.057009
PE15   2593.441426 -15882.212561  24855.611498    774.031787
PE18 -17606.010641  23650.133970 -10828.445101  -1850.491925
PE19 -22553.135380  17714.254976  -7320.232987    457.459360
PE21 -18255.604167  -7704.002036  21993.906624   -706.533791
PE24  13163.810270  25643.858931  -6667.962042  -1291.378084
PE25  18260.896372   7949.782060 -21887.088140   -557.586069
PE26 -29175.898408  -4769.811234  -1552.601194   -594.393977
PE27 -13831.294175 -25011.341525   7740.043914   -191.577751
PE30   -324.165491 -27100.364651 -11936.147311   -126.886083
PE31   1291.434349  27459.458624  10970.248149   -489.655812
PE33 -22439.425995   7377.549547 -17825.936542   -461.224104
PE36  29116.143473   5313.210226    551.869151   -306.814049
PG01  20922.921525  14209.911259  -8935.761274    478.410834
PG02   -987.424281 -15990.495471  21835.686859   -646.339366
PG03  12674.652627  19073.994186  13437.939007    -48.787592
PG04  13364.599885   8483.767413  21338.172350   -198.271387
PG05  -5344.922724 -25925.333238    418.598129    -65.134089
PG06  15491.303538  -8392.454512  19964.577338    148.458359
PG07  25606.326343   5134.117917  -5731.625627    293.286868
PG08   3211.034898  16238.419720 -20710.680716    -48.911484
PG09  20738.091287  -2723.985142  16312.754356   -360.004429
PG10 -12582.913767  10283.297495 -20816.072894   -273.781456
PG11   1765.687244 -15543.710420  21462.625316     10.964584
PG12 -10260.713531 -21467.078480  11685.362619   -143.907017
PG13   5777.118402 -18518.243422 -18225.968439    232.750805
PG14  13458.605064  -9780.641481 -20693.882353    -58.570612
PG15  -6073.365559 -16057.788376 -20601.381014    -97.578014
PG16     83.443803  26087.884772   3123.785698   -443.642073
PG17  22600.909866 -13163.463709  -4284.369110    550.438652
PG18 -25228.999615  -4488.808743  -7184.948708    275.749232
PG19  20417.663346 -16449.474456   3338.755130     94.994820
PG20    276.245155 -24269.073348  11074.962410    517.545629
PG21  14957.749665  15354.772297 -15369.339180    154.259289
PG22  11026.772714  23703.851776   5466.591592   -436.414324
PG23 -15571.280683  -2462.216337 -21405.787157     19.589439
PG24 -18377.480214 -14925.911820 -12728.401373    275.591063
PG25 -15280.539555 -10839.679131  18662.625611    258.946657
PG26  -6892.082986  20302.519904  15408.906081    166.991078
PG27  -7435.618382  20112.775071 -15600.569066     15.076380
PG28   9996.445948 -17714.406623 -16666.770101    438.787453
PG29 -18674.913481  -1980.657280  18766.686256   -456.815338
PG30  22073.158205  -2970.466081 -14577.578214   -500.909691
PG31 -13932.895165   9965.551170  20295.807655   -156.065970
PG32 -20675.900704  16450.811497  -1282.095253    -38.228708
PJ01      0.000000      0.000000      0.000000 999999.999999
PJ02 -25530.451491  23785.711780  28658.170437     -0.445830
PJ03 -33639.607213  19627.345348 -11313.396981     -9.961189
PJ07 -25357.590213  33675.388626      6.607533     -0.018212
PR01  12031.853696   -891.508576  22469.138320      7.409765
PR02  13674.886735 -19005.230534  10239.858416    503.951350
PR03   6553.031628 -23617.735057  -7138.896492     48.510756
PR04  -3896.895085 -14844.962743 -20357.150216    119.832219
PR05 -12267.990570   2009.993474 -22263.867477     84.565240
PR07  -6096.977471  23446.351636   7934.523703    -39.044289
PR08   4139.734966  14765.112325  20424.647911    -62.646032
PR09  -8082.046321   7986.675125  22854.978201     29.857705
PR11  15591.146548  20194.511800   -154.119355     48.587579
PR12  16806.090886   8916.507533 -16955.234255    288.283119
PR13   8642.646629  -6831.979166 -23023.495883    -15.908355
PR14  -5404.163212 -19563.166099 -15435.916801     72.330472
PR15 -15601.552257 -20164.220758    914.032165     99.452140
PR17   4709.052110 -10852.934546  22607.898323    485.444589
PR18 -13272.432155  -7810.826702  20339.958246    101.205431
PR19 -24065.525485  -1827.728857   8274.037859   -171.456444
PR20 -21508.037306   6878.113364 -11811.523175    -61.595383
PR21  -3312.826286  10717.848642 -22904.405891   -263.845525
PR22  14251.326933   7503.103842 -19820.445383   -152.828682
PR24  20898.497469  -7837.115818  12357.411234     72.128404
EOF
